NORAD_CAT_ID,OBJECT_NAME,OBJECT_TYPE,EPOCH,MEAN_MOTION,ECCENTRICITY,INCLINATION,RA_OF_ASC_NODE,ARG_OF_PERICENTER,MEAN_ANOMALY,BSTAR,MEAN_MOTION_DOT,MEAN_MOTION_DDOT,TLE_LINE0,TLE_LINE1,TLE_LINE2,SEMIMAJOR_AXIS,PERIOD,APOGEE,PERIGEE,DECAYED
52666.0,STARLINK-4079,PAYLOAD,2023-05-02 10:46:17,15.08842065,0.0001268,53.2156,152.9309,94.9506,265.1631,0.00013457,1.855e-05,0.0,0 STARLINK-4079,1 52666U 22053L   23122.44881337  .00001855  00000-0  13457-3 0  9997,2 52666  53.2156 152.9309 0001268  94.9506 265.1631 15.08842065 53706,6917.874,95.437,540.616,538.862,0.0
52666.0,STARLINK-4079,PAYLOAD,2023-05-02 12:21:40,15.08842582,0.0001267,53.2156,152.6334,95.3959,264.7178,0.00013765,1.904e-05,0.0,0 STARLINK-4079,1 52666U 22053L   23122.51505308  .00001904  00000-0  13765-3 0  9993,2 52666  53.2156 152.6334 0001267  95.3959 264.7178 15.08842582 53713,6917.872,95.437,540.614,538.861,0.0
52666.0,STARLINK-4079,PAYLOAD,2023-05-03 02:40:09,15.08834231,0.0001274,53.2156,149.9566,95.5909,264.5229,4.0475e-05,3.56e-06,0.0,0 STARLINK-4079,1 52666U 22053L   23123.11122257  .00000356  00000-0  40475-4 0  9997,2 52666  53.2156 149.9566 0001274  95.5909 264.5229 15.08834231 53801,6917.898,95.438,540.644,538.882,0.0
52666.0,STARLINK-4079,PAYLOAD,2023-05-03 10:37:05,15.08837459,0.0001239,53.2155,148.4698,96.3913,263.722,5.5521e-05,5.96e-06,0.0,0 STARLINK-4079,1 52666U 22053L   23123.44242098  .00000596  00000-0  55521-4 0  9993,2 52666  53.2155 148.4698 0001239  96.3913 263.7220 15.08837459 53857,6917.888,95.438,540.61,538.896,0.0
52666.0,STARLINK-4079,PAYLOAD,2023-05-04 10:27:52,15.08839918,0.00012,53.2149,144.0085,95.5011,264.6118,1.7481e-05,-1e-07,0.0,0 STARLINK-4079,1 52666U 22053L   23124.43602085 -.00000010  00000-0  17481-4 0  9994,2 52666  53.2149 144.0085 0001200  95.5011 264.6118 15.08839918 54006,6917.881,95.438,540.576,538.915,0.0
52666.0,STARLINK-4079,PAYLOAD,2023-05-05 18:15:34,15.08840842,0.0001176,53.2153,138.0616,93.3236,266.7891,7.6887e-05,9.36e-06,0.0,0 STARLINK-4079,1 52666U 22053L   23125.76082010  .00000936  00000-0  76887-4 0  9992,2 52666  53.2153 138.0616 0001176  93.3236 266.7891 15.08840842 54202,6917.878,95.438,540.556,538.929,0.0
52666.0,STARLINK-4079,PAYLOAD,2023-05-06 06:58:39,15.0884414,0.0001192,53.2152,135.6825,95.4122,264.7006,9.6197e-05,1.244e-05,0.0,0 STARLINK-4079,1 52666U 22053L   23126.29073838  .00001244  00000-0  96197-4 0  9998,2 52666  53.2152 135.6825 0001192  95.4122 264.7006 15.08844140 54280,6917.868,95.437,540.557,538.908,0.0
52666.0,STARLINK-4079,PAYLOAD,2023-05-07 00:27:54,15.08841685,0.0001212,53.2151,132.4119,93.1208,266.9923,4.4785e-05,4.25e-06,0.0,0 STARLINK-4079,1 52666U 22053L   23127.01938086  .00000425  00000-0  44785-4 0  9990,2 52666  53.2151 132.4119 0001212  93.1208 266.9923 15.08841685 54398,6917.875,95.437,540.579,538.902,0.0
52666.0,STARLINK-4079,PAYLOAD,2023-05-07 06:49:27,15.08841247,0.0001241,53.2154,131.2227,89.6844,270.4291,3.4435e-05,2.6e-06,0.0,0 STARLINK-4079,1 52666U 22053L   23127.28434147  .00000260  00000-0  34435-4 0  9996,2 52666  53.2154 131.2227 0001241  89.6844 270.4291 15.08841247 54433,6917.877,95.437,540.6,538.883,0.0
52666.0,STARLINK-4079,PAYLOAD,2023-05-08 05:04:51,15.08839631,0.0001227,53.2159,127.0599,88.3587,271.7545,2.1115e-05,4.8e-07,0.0,0 STARLINK-4079,1 52666U 22053L   23128.21170274  .00000048  00000-0  21115-4 0  9993,2 52666  53.2159 127.0599 0001227  88.3587 271.7545 15.08839631 54572,6917.882,95.438,540.595,538.898,0.0
52666.0,STARLINK-4079,PAYLOAD,2023-05-08 09:51:00,15.08842019,0.0001209,53.2159,126.1677,87.9768,272.1363,2.8053e-05,1.59e-06,0.0,0 STARLINK-4079,1 52666U 22053L   23128.41042067  .00000159  00000-0  28053-4 0  9994,2 52666  53.2159 126.1677 0001209  87.9768 272.1363 15.08842019 54606,6917.874,95.437,540.576,538.903,0.0
52666.0,STARLINK-4079,PAYLOAD,2023-05-09 09:41:47,15.0884222,0.0001221,53.2158,121.7067,87.4412,272.672,7.7246e-05,9.42e-06,0.0,0 STARLINK-4079,1 52666U 22053L   23129.40401909  .00000942  00000-0  77246-4 0  9996,2 52666  53.2158 121.7067 0001221  87.4412 272.6720 15.08842220 54756,6917.874,95.437,540.583,538.894,0.0
52666.0,STARLINK-4079,PAYLOAD,2023-05-10 07:57:11,15.08841626,0.0001346,53.216,117.5444,93.1548,266.9598,-9.1097e-06,-4.33e-06,0.0,0 STARLINK-4079,1 52666U 22053L   23130.33138477 -.00000433  00000-0 -91097-5 0  9995,2 52666  53.2160 117.5444 0001346  93.1548 266.9598 15.08841626 54896,6917.875,95.437,540.672,538.809,0.0
52666.0,STARLINK-4079,PAYLOAD,2023-05-10 15:54:07,15.08838716,0.0001189,53.216,116.0579,91.1568,268.956,2.523e-05,1.14e-06,0.0,0 STARLINK-4079,1 52666U 22053L   23130.66258577  .00000114  00000-0  25230-4 0  9994,2 52666  53.2160 116.0579 0001189  91.1568 268.9560 15.08838716 54947,6917.884,95.438,540.572,538.927,0.0
52666.0,STARLINK-4079,PAYLOAD,2023-05-11 06:12:35,15.08840784,0.000121,53.2161,113.3814,93.6051,266.508,3.4373e-05,2.59e-06,0.0,0 STARLINK-4079,1 52666U 22053L   23131.25874499  .00000259  00000-0  34373-4 0  9995,2 52666  53.2161 113.3814 0001210  93.6051 266.5080 15.08840784 55039,6917.878,95.438,540.58,538.906,0.0
52666.0,STARLINK-4079,PAYLOAD,2023-05-11 15:44:54,15.08840511,0.0001235,53.2164,111.5972,96.9112,263.202,-7.7291e-06,-4.11e-06,0.0,0 STARLINK-4079,1 52666U 22053L   23131.65618651 -.00000411  00000-0 -77291-5 0  9994,2 52666  53.2164 111.5972 0001235  96.9112 263.2020 15.08840511 55090,6917.879,95.438,540.598,538.889,0.0
52666.0,STARLINK-4079,PAYLOAD,2023-05-12 04:27:59,15.08836007,0.0001202,53.2164,109.2177,96.4218,263.6911,2.7082e-05,1.43e-06,0.0,0 STARLINK-4079,1 52666U 22053L   23132.18611010  .00000143  00000-0  27082-4 0  9997,2 52666  53.2164 109.2177 0001202  96.4218 263.6911 15.08836007 55174,6917.893,95.438,540.589,538.926,0.0
52666.0,STARLINK-4079,PAYLOAD,2023-05-12 15:35:41,15.08836698,0.0001198,53.2164,107.1357,93.4217,266.6912,2.4794e-05,1.07e-06,0.0,0 STARLINK-4079,1 52666U 22053L   23132.64979065  .00000107  00000-0  24794-4 0  9992,2 52666  53.2164 107.1357 0001198  93.4217 266.6912 15.08836698 55249,6917.89,95.438,540.584,538.927,0.0
52666.0,STARLINK-4079,PAYLOAD,2023-05-13 05:54:09,15.0884221,0.0001201,53.2165,104.4588,95.0522,265.0607,6.0366e-05,6.73e-06,0.0,0 STARLINK-4079,1 52666U 22053L   23133.24594704  .00000673  00000-0  60366-4 0  9995,2 52666  53.2165 104.4588 0001201  95.0522 265.0607 15.08842210 55339,6917.874,95.437,540.569,538.908,0.0
52666.0,STARLINK-4079,PAYLOAD,2023-05-13 15:26:28,15.08837992,0.0001199,53.2166,102.6745,94.3646,265.7483,3.8398e-05,3.23e-06,0.0,0 STARLINK-4079,1 52666U 22053L   23133.64339014  .00000323  00000-0  38398-4 0  9992,2 52666  53.2166 102.6745 0001199  94.3646 265.7483 15.08837992 55396,6917.887,95.438,540.581,538.922,0.0
52666.0,STARLINK-4079,PAYLOAD,2023-05-14 04:09:34,15.08838249,0.00012,53.2168,100.2954,94.5392,265.5737,4.8706e-05,4.87e-06,0.0,0 STARLINK-4079,1 52666U 22053L   23134.17331061  .00000487  00000-0  48706-4 0  9990,2 52666  53.2168 100.2954 0001200  94.5392 265.5737 15.08838249 55472,6917.886,95.438,540.581,538.921,0.0
52666.0,STARLINK-4079,PAYLOAD,2023-05-14 15:17:15,15.08838503,0.0001198,53.2169,98.2139,94.0013,266.1116,5.1913e-05,5.38e-06,0.0,0 STARLINK-4079,1 52666U 22053L   23134.63699042  .00000538  00000-0  51913-4 0  9998,2 52666  53.2169  98.2139 0001198  94.0013 266.1116 15.08838503 55544,6917.885,95.438,540.579,538.921,0.0
52666.0,STARLINK-4079,PAYLOAD,2023-05-15 04:00:20,15.0884218,0.0001211,53.2165,95.8363,87.7413,272.3718,2.723e-05,1.46e-06,0.0,0 STARLINK-4079,1 52666U 22053L   23135.16690959  .00000146  00000-0  27230-4 0  9995,2 52666  53.2165  95.8363 0001211  87.7413 272.3718 15.08842180 55623,6917.874,95.437,540.576,538.901,0.0
52666.0,STARLINK-4079,PAYLOAD,2023-05-16 02:15:45,15.0883443,0.0001206,53.2166,91.6731,87.7211,272.3919,7.0073e-05,8.27e-06,0.0,0 STARLINK-4079,1 52666U 22053L   23136.09427318  .00000827  00000-0  70073-4 0  9994,2 52666  53.2166  91.6731 0001206  87.7211 272.3919 15.08834430 55764,6917.897,95.438,540.597,538.928,0.0
52666.0,STARLINK-4079,PAYLOAD,2023-05-17 03:41:55,15.0884054,0.0001245,53.2176,86.9152,85.5384,274.5751,4.3166e-05,3.99e-06,0.0,0 STARLINK-4079,1 52666U 22053L   23137.15411111  .00000399  00000-0  43166-4 0  9993,2 52666  53.2176  86.9152 0001245  85.5384 274.5751 15.08840540 55924,6917.879,95.438,540.605,538.882,0.0
52666.0,STARLINK-4079,PAYLOAD,2023-05-18 01:57:19,15.08834458,0.0001466,53.2184,82.7584,118.7956,241.3184,2.4826e-06,-2.48e-06,0.0,0 STARLINK-4079,1 52666U 22053L   23138.08147769 -.00000248  00000-0  24826-5 0  9998,2 52666  53.2184  82.7584 0001466 118.7956 241.3184 15.08834458 56064,6917.897,95.438,540.776,538.748,0.0
52666.0,STARLINK-4079,PAYLOAD,2023-05-18 05:08:06,15.08834341,0.0001103,53.2172,82.1585,88.5232,271.5886,3.8589e-06,-2.26e-06,0.0,0 STARLINK-4079,1 52666U 22053L   23138.21395851 -.00000226  00000-0  38589-5 0  9997,2 52666  53.2172  82.1585 0001103  88.5232 271.5886 15.08834341 56082,6917.898,95.438,540.526,539.0,0.0
52666.0,STARLINK-4079,PAYLOAD,2023-05-18 21:01:57,15.08837166,0.0001052,53.2172,79.1843,86.2819,273.8293,1.6394e-05,-2.7e-07,0.0,0 STARLINK-4079,1 52666U 22053L   23138.87635803 -.00000027  00000-0  16394-4 0  9991,2 52666  53.2172  79.1843 0001052  86.2819 273.8293 15.08837166 56180,6917.889,95.438,540.482,539.026,0.0
52666.0,STARLINK-4079,PAYLOAD,2023-05-19 03:23:29,15.08843425,0.0001069,53.2176,77.9949,88.8614,271.25,4.83e-05,4.81e-06,0.0,0 STARLINK-4079,1 52666U 22053L   23139.14131333  .00000481  00000-0  48300-4 0  9996,2 52666  53.2176  77.9949 0001069  88.8614 271.2500 15.08843425 56229,6917.87,95.437,540.474,538.995,0.0
52666.0,STARLINK-4079,PAYLOAD,2023-05-19 19:17:21,15.08836141,0.0001019,53.2179,75.0213,91.5939,268.517,2.2892e-05,7.7e-07,0.0,0 STARLINK-4079,1 52666U 22053L   23139.80371981  .00000077  00000-0  22892-4 0  9993,2 52666  53.2179  75.0213 0001019  91.5939 268.5170 15.08836141 56321,6917.892,95.438,540.462,539.052,0.0
